SZ-21 MODULE            
1 66515U 25246C   26065.50767940  .00041950  00000+0  36494-3 0  9996
2 66515  41.4735 222.9439 0001433 292.6372  67.4317 15.68252686 17579
SHENZHOU-22             
1 66645U 25272A   26066.09178101  .00025371  00000+0  30186-3 0  9990
2 66645  41.4664 223.9664 0006989 257.1897 102.8161 15.60509219268796
SOYUZ-MS 28             
1 66664U 25275A   26065.86737742  .00008564  00000+0  16627-3 0  9999
2 66664  51.6318  86.3097 0008109 164.5613 195.5624 15.48482048555899
DUPLEX                  
1 66906U 98067XS  26065.43931271  .00032127  00000+0  45868-3 0  9994
2 66906  51.6289  85.7046 0002177  98.7594 261.3644 15.55966204 14621
ISS OBJECT XT           
1 66907U 98067XT  26066.03475352  .00157029  00000+0  13518-2 0  9990
2 66907  51.6250  79.1691 0004689  60.7752 299.3713 15.68270383 14761
ISS OBJECT XU           
1 66908U 98067XU  26065.33220126  .00152767  00000+0  13221-2 0  9995
2 66908  51.6249  82.7244 0004715  58.9313 301.2145 15.68155385 14650
SILVERSAT               
1 66909U 98067XV  26066.03903710  .00200094  00000+0  15276-2 0  9990
2 66909  51.6253  78.4433 0005422  56.7169 303.4348 15.71023983 14773
ISS OBJECT XW           
1 66910U 98067XW  26066.02858015  .00141218  00000+0  12471-2 0  9994
2 66910  51.6240  79.1197 0005065  69.5355 290.6184 15.67700500 14764
ISS OBJECT XX           
1 66911U 98067XX  26065.40607185  .00240114  00000+0  16386-2 0  9990
2 66911  51.6211  80.9498 0007025  63.2110 296.9607 15.73534846 14679
ISS OBJECT XY           
1 66912U 98067XY  26065.44936360  .00091647  00000+0  98520-3 0  9991
2 66912  51.6268  83.5178 0003032  70.8849 289.2473 15.62981143 14640
ISS OBJECT XZ           
1 67683U 98067XZ  26066.02271945  .00039087  00000+0  65116-3 0  9998
2 67683  51.6308  85.0994 0009427 176.7585 183.3468 15.51569272  4371
GXIBA-1                 
1 67684U 98067YA  26066.06384671  .00081342  00000+0  12347-2 0  9992
2 67684  51.6298  84.6245 0010893 167.0714 193.0557 15.53815499  4385
CORAL                   
1 67685U 98067YB  26065.37492343  .00044090  00000+0  72551-3 0  9995
2 67685  51.6303  88.2731 0011331 171.0094 189.1100 15.51836923  4278
ISS OBJECT YC           
1 67686U 98067YC  26066.07860949  .00054518  00000+0  87809-3 0  9993
2 67686  51.6302  84.7241 0007821 140.7599 219.3959 15.52378490  4388
LEOPARD                 
1 67687U 98067YD  26065.44105420  .00044085  00000+0  73033-3 0  9992
2 67687  51.6311  87.9659 0007779 143.5641 216.5880 15.51685674  4205
ISS OBJECT YE           
1 67688U 98067YE  26066.08070531  .00050287  00000+0  81747-3 0  9990
2 67688  51.6306  84.7377 0007742 141.0752 219.0796 15.52156341  4308
CREW DRAGON 12          
1 67796U 26031A   26065.86737742  .00008564  00000+0  16627-3 0  9997
2 67796  51.6318  86.3097 0008109 164.5613 195.5624 15.48482048555773
